GSAT0103-PRN-E19
1 38857U 12055A   23120.04694842  .00000077  00000+0  00000+0 0  9991
2 38857  55.2386 132.9910 0005863 270.0604  89.9202  1.70473781 65502
